id,spkid,full_name,pdes,name,prefix,neo,pha,H,diameter,albedo,diameter_sigma,orbit_id,epoch,epoch_mjd,epoch_cal,equinox,e,a,q,i,om,w,ma,ad,n,tp,tp_cal,per,per_y,moid,moid_ld,sigma_e,sigma_a,sigma_q,sigma_i,sigma_om,sigma_w,sigma_ma,sigma_ad,sigma_n,sigma_tp,sigma_per,class,rms
a0007265,2007265,  7265 Edithmuller (2908 T-2),7265,Edithmuller,,N,N,14.0,3.404,0.505,0.108,JPL 26,2459000.5,59000,20200531.0,J2000,0.0808998293336927,2.440780482922872,2.243321758413404,5.937333649382611,194.8644576907378,344.8224110465448,280.5591605222796,2.638239207432341,0.2584705047987792,2459307.84972851,20210403.3497285,1392.808824667488,3.81330273694042,1.24654,485.1159718,4.9985e-08,1.0429e-08,1.2746e-07,4.5158e-06,2.8336e-05,3.4229e-05,2.0809e-05,1.1273e-08,1.6566e-09,8.128e-05,8.9269e-06,MBA,0.46824
a0005266,2005266,  5266 Rauch (4047 T-2),5266,Rauch,,N,N,13.6,10.809,0.066,0.131,JPL 24,2459000.5,59000,20200531.0,J2000,0.1320595188348963,2.715806878217504,2.357158728631599,15.71435470134954,11.51252675749015,117.8840540646015,40.1512808460215,3.07445502780341,0.2202194877218453,2458818.1760773472,20191130.6760773,1634.732710189157,4.47565423734198,1.41218,549.5780906,4.1669e-08,1.2106e-08,1.1554e-07,6.3355e-06,1.3977e-05,2.6988e-05,2.1336e-05,1.3705e-08,1.4725e-09,9.6995e-05,1.0931e-05,MBA,0.43635
a0010558,2010558, 10558 Karlstad (1993 RB7),10558,Karlstad,,N,N,14.6,3.474,0.227,0.072,JPL 28,2459000.5,59000,20200531.0,J2000,0.1298299627649934,2.344136058785503,2.039796961557303,5.639866640310488,190.442853890032,124.4675312449275,195.2076752816131,2.648475156013704,0.2746185379592372,2459600.577205068,20220121.0772051,1310.909316884632,3.5890741050914,1.03277,401.9231009,3.4412e-08,7.6319e-09,7.9285e-08,3.7352e-06,3.6283e-05,3.8862e-05,1.3748e-05,8.6227e-09,1.3411e-09,5.0592e-05,6.4019e-06,MBA,0.50653
a0004438,2004438,  4438 Sykes (1983 WR),4438,Sykes,,N,N,11.6,26.693,0.062,0.271,JPL 37,2459000.5,59000,20200531.0,J2000,0.2531584044466432,3.163042237247446,2.362291511268542,13.30592193375804,56.86710752639568,291.92430464,217.0733153299601,3.96379296322635,0.1752050367618815,2459816.2681269418,20220824.7681269,2054.735449696407,5.62555906829954,1.39585,543.2229445,4.0003e-08,2.1259e-08,1.2795e-07,4.062e-06,1.9406e-05,2.0878e-05,1.1888e-05,2.6641e-08,1.7663e-09,7.3825e-05,2.0715e-05,MBA,0.46434
a0030725,2030725, 30725 Klimov (1978 SA8),30725,Klimov,,N,N,14.4,7.45,0.061,0.151,JPL 24,2459000.5,59000,20200531.0,J2000,0.1883834949758304,2.423643534690127,1.967069095049625,2.614211144451883,211.6870410305585,163.8954987749266,14.27624513658925,2.880217974330628,0.2612167107702078,2458945.847121573,20200406.3471216,1378.16604052063,3.77321297883814,0.968476,376.90180492,3.9943e-08,9.9354e-09,9.7413e-08,4.3982e-06,9.2207e-05,9.284e-05,1.2051e-05,1.1807e-08,1.6062e-09,4.6002e-05,8.4744e-06,MBA,0.52025
a0026634,2026634, 26634 Balasubramanian (2000 HX51),26634,Balasubramanian,,N,N,14.1,7.101,0.088,0.581,JPL 27,2459000.5,59000,20200531.0,J2000,0.1695896451595116,3.058349476779042,2.539685074238307,0.5221380809449198,217.5751183015369,122.7943957138912,175.8896526577628,3.577013879319778,0.1842779651306205,2458046.019888756,20171019.5198888,1953.570519105871,5.34858458345208,1.5312,595.897104,3.9031e-08,1.5677e-08,1.2245e-07,3.8208e-06,0.00045617,0.00045628,1.1264e-05,1.8336e-08,1.4169e-09,5.8799e-05,1.5021e-05,MBA,0.5036
a0002506,2002506,  2506 Pirogov (1976 QG1),2506,Pirogov,,N,N,11.9,11.359,0.261,0.135,JPL 32,2459000.5,59000,20200531.0,J2000,0.017869237917879,2.90268582785603,2.850817044197215,2.166570923340473,164.7024089035071,290.2415325995442,206.8397755897211,2.954554611514846,0.1992984977409457,2459768.996632671,20220708.4966327,1806.335743021701,4.94547773585681,1.86852,727.1719284,3.1548e-08,1.2978e-08,8.9763e-08,3.4416e-06,9.3534e-05,0.00013962,0.00010487,1.321e-08,1.3366e-09,0.00052729,1.2115e-05,MBA,0.4601
a0021623,2021623, 21623 Albertshieh (1999 LS24),21623,Albertshieh,,N,N,14.0,3.829,0.332,0.117,JPL 34,2459000.5,59000,20200531.0,J2000,0.0885610807695895,2.384124992121701,2.172984306129614,3.291433299637124,248.8547047583019,286.9531780062543,324.6125542571733,2.595265678113788,0.267738325805316,2459132.6717600063,20201010.17176,1344.596441010733,3.68130442439626,1.17971,459.1077407,3.3184e-08,8.3452e-09,7.903e-08,3.38e-06,6.2723e-05,6.5365e-05,1.9116e-05,9.0842e-09,1.4058e-09,7.1562e-05,7.0598e-06,MBA,0.50173
a0025851,2025851, 25851 Browning (2000 EE120),25851,Browning,,N,N,12.7,14.661,0.082,0.231,JPL 27,2459000.5,59000,20200531.0,J2000,0.0897155842040774,3.556150936239101,3.237108777476533,11.02028960213588,19.6085669982898,41.59626304971729,87.11098661518504,3.87519309500167,0.1469717262726433,2458407.794254314,20181016.2942543,2449.450714977475,6.70623056804237,2.25899,879.1311383,4.0126e-08,2.8356e-08,1.4289e-07,5.4622e-06,2.334e-05,4.0969e-05,3.1967e-05,3.09e-08,1.7579e-09,0.00021717,2.9297e-05,OMB,0.47826
a0432050,2432050,432050 (2008 XA37),432050,,,N,N,17.1,,,,13,2459000.5,59000,20200531.0,J2000,0.0783735071885363,2.865749298551203,2.641150475300658,2.011619043656792,15.06472492966567,331.8613146211395,209.0635919279565,3.090348121801749,0.2031640125702532,2459743.428859114,20220612.9288591,1771.967364916627,4.85138224480938,1.6343,636.020531,1.7833e-07,5.5921e-08,5.2266e-07,1.7197e-05,0.00027206,0.0002824,6.5505e-05,6.0303e-08,5.9467e-09,0.00031618,5.1866e-05,MBA,0.57933
a0032990,2032990, 32990 Sayo-hime (1996 YD3),32990,Sayo-hime,,N,N,13.4,7.874,0.136,0.177,24,2459000.5,59000,20200531.0,J2000,0.0821925640150137,3.029695878560033,2.780677406115464,9.447760362097307,350.7706073659571,280.1815587019957,355.7730240272022,3.278714351004602,0.1868983725515354,2459023.1164407698,20200622.6164408,1926.180496305464,5.27359478796842,1.78511,694.7112587,3.7658e-08,1.9264e-08,1.187e-07,4.9153e-06,2.4892e-05,3.8736e-05,3.0508e-05,2.0847e-08,1.7825e-09,0.00016325,1.8371e-05,MBA,0.53316
a0019461,2019461, 19461 Feingold (1998 HZ16),19461,Feingold,,N,N,14.4,3.46,0.338,0.212,21,2459000.5,59000,20200531.0,J2000,0.093289030540021,2.542717555839423,2.305509900118071,5.075137100614439,304.1315196820275,203.7262872830835,200.7943304555751,2.779925211560775,0.2430842895920983,2459655.440184788,20220316.9401848,1480.967777078845,4.05466879419259,1.31831,513.0467027,8.5068e-08,1.231e-08,2.1984e-07,5.4286e-06,6.1701e-05,7.0488e-05,3.1225e-05,1.3458e-08,1.7652e-09,0.0001281,1.0754e-05,MBA,0.54728
a0008122,2008122,  8122 Holbein (4038 P-L),8122,Holbein,,N,N,14.4,3.54,0.323,0.184,JPL 26,2459000.5,59000,20200531.0,J2000,0.164855512381659,2.378380163696844,1.986291083172227,1.536725677158526,302.2625052663131,178.9023562963394,358.1288136344353,2.770469244221462,0.2687089691009008,2459007.463617076,20200606.9636171,1339.739425909595,3.66800664177849,1.00217,390.0144989,2.8225e-08,6.1075e-09,6.7966e-08,3.0389e-06,0.00013803,0.00013862,1.2463e-05,7.1143e-09,1.035e-09,4.6392e-05,5.1605e-06,MBA,0.51548
a0005714,2005714,  5714 Krasinsky (1982 PR),5714,Krasinsky,,N,N,12.1,19.916,0.07,0.124,JPL 31,2459000.5,59000,20200531.0,J2000,0.2007637366016037,3.133302012031391,2.504248592194645,1.076407911360887,30.52300449047863,337.0220431656281,276.1980168874409,3.762355431868136,0.1777054255542797,2459472.0780784474,20210914.5780784,2025.824472590675,5.54640512687385,1.50324,585.0159108,3.5226e-08,1.5554e-08,1.1382e-07,3.8225e-06,0.00019202,0.00019221,1.0982e-05,1.8677e-08,1.3232e-09,6.4118e-05,1.5085e-05,MBA,0.5015
a0026240,2026240, 26240 Leigheriks (1998 QX39),26240,Leigheriks,,N,N,14.9,2.534,0.332,0.518,JPL 29,2459000.5,59000,20200531.0,J2000,0.1975750107911823,2.246861846611331,1.802938093020802,5.179866144420665,147.2394075209912,199.3328977499066,160.3747531488555,2.69078560020186,0.2926439293053225,2458452.4799077,20181129.9799077,1230.163908933861,3.36800522637607,0.796617,310.01943789,4.3624e-08,7.5231e-09,9.6214e-08,3.777e-06,4.035e-05,4.1121e-05,9.7824e-06,9.0095e-09,1.4698e-09,3.2257e-05,6.1784e-06,MBA,0.51688
a0025727,2025727, 25727 Karsonmiller (2000 AN182),25727,Karsonmiller,,N,N,14.0,4.455,0.117,0.285,24,2459000.5,59000,20200531.0,J2000,0.0917424554557606,2.769791647864206,2.515684160988286,9.418761736451197,170.3113449674694,324.7956847422568,140.4758546176634,3.023899134740126,0.2138126626396915,2458343.495625781,20180812.9956258,1683.716930304814,4.60976572294268,1.53498,597.3681666,3.4687e-08,1.4381e-08,9.6133e-08,4.4219e-06,2.4341e-05,3.5637e-05,2.4851e-05,1.5701e-08,1.6652e-09,0.00011621,1.3113e-05,MBA,0.5072
a0002939,2002939,  2939 Coconino (1982 DP),2939,Coconino,,N,N,12.6,5.607,0.512,0.177,JPL 34,2459000.5,59000,20200531.0,J2000,0.1637022598211761,2.440074056711102,2.040628419496469,3.948126919982233,349.9433383891255,237.5210534045368,305.8832229878348,2.839519693925734,0.2585827576751984,2459209.7822332727,20201226.2822333,1392.204195038364,3.8116473512344,1.0344,402.557448,3.5768e-08,8.4001e-09,8.973e-08,3.7022e-06,5.0615e-05,5.183e-05,1.3673e-05,9.7752e-09,1.3353e-09,5.3393e-05,7.1891e-06,MBA,0.42598
a0058196,2058196, 58196 Ashleyess (1992 EC1),58196,Ashleyess,,N,N,15.1,4.996,0.049,1.164,JPL 20,2459000.5,59000,20200531.0,J2000,0.2617268431565035,2.578066019203463,1.903316938548287,26.04633720327351,190.7344040069983,320.2131688416184,306.6718440963944,3.252815099858639,0.2381019882813584,2459224.4719050163,20210109.971905,1511.957134833323,4.13951303171341,0.955693,371.92704481,5.3938e-08,1.7919e-08,1.3531e-07,8.8567e-06,1.0456e-05,2.0218e-05,1.8312e-05,2.2609e-08,2.4824e-09,7.7944e-05,1.5763e-05,MBA,0.52882
a0048714,2048714, 48714 (1996 PB8),48714,,,N,N,14.3,7.781,0.067,0.487,JPL 25,2459000.5,59000,20200531.0,J2000,0.2767683014515451,3.2077703856365,2.319961224557318,2.251375908665278,172.9389594178322,175.0128959860504,47.84518102769409,4.095579546715681,0.171553334320724,2458721.606085072,20190826.1060851,2098.472766066845,5.74530531435139,1.31347,511.1631199,5.089e-08,1.6676e-08,1.6294e-07,5.7848e-06,9.2094e-05,9.236e-05,5.9234e-06,2.1291e-08,1.3378e-09,3.4534e-05,1.6364e-05,OMB,0.51769
